{"type": "FeatureCollection", "features": [ {"type": "Feature", "properties": {"norad_id": 66645, "name": "SHENZHOU-22", "group": "last-30-days", "lat": 40.37895481664613, "lon": 14.129458896415388, "alt_km": 379.52927535194976, "timestamp": "2025-12-25T09:48:51.003851+00:00", "meta": {"OBJECT_NAME": "SHENZHOU-22", "OBJECT_ID": "2025-272A", "EPOCH": "2025-12-24T21:11:11.048064", "MEAN_MOTION": 15.59651715, "ECCENTRICITY": 0.00082343, "INCLINATION": 41.4683, "RA_OF_ASC_NODE": 302.9604, "ARG_OF_PERICENTER": 137.936, "MEAN_ANOMALY": 222.2112, "EPHEMERIS_TYPE": 0, "CLASSIFICATION_TYPE": "U", "NORAD_CAT_ID": 66645, "ELEMENT_SET_NO": 999, "REV_AT_EPOCH": 26583, "BSTAR": 0.00020600017, "MEAN_MOTION_DOT": 0.00016629, "MEAN_MOTION_DDOT": 0}, "tle": {"line1": "1 66645U 25272A   25358.88276676  .00016629  00000+0  20600-3 0  9992", "line2": "2 66645  41.4683 302.9604 0008234 137.9360 222.2112 15.59651715265836"}}, "geometry": {"type": "Point", "coordinates": [14.129458896415388, 40.37895481664613]}}, {"type": "Feature", "properties": {"norad_id": 66647, "name": "COSMOS 2597 (RODNIK-S 22)", "group": "last-30-days", "lat": -25.419439041186777, "lon": 102.1719679248502, "alt_km": 1499.9432437010282, "timestamp": "2025-12-25T09:48:51.003863+00:00", "meta": {"OBJECT_NAME": "COSMOS 2597 (RODNIK-S 22)", "OBJECT_ID": "2025-273A", "EPOCH": "2025-12-25T02:54:35.472960", "MEAN_MOTION": 12.41952274, "ECCENTRICITY": 0.0007598, "INCLINATION": 82.4994, "RA_OF_ASC_NODE": 278.7611, "ARG_OF_PERICENTER": 256.9207, "MEAN_ANOMALY": 103.1024, "EPHEMERIS_TYPE": 0, "CLASSIFICATION_TYPE": "U", "NORAD_CAT_ID": 66647, "ELEMENT_SET_NO": 999, "REV_AT_EPOCH": 367, "BSTAR": 0.00025394, "MEAN_MOTION_DOT": 4.5e-07, "MEAN_MOTION_DDOT": 0}, "tle": {"line1": "1 66647U 25273A   25359.12124390  .00000045  00000+0  25394-3 0  9998", "line2": "2 66647  82.4994 278.7611 0007598 256.9207 103.1024 12.41952274  3673"}}, "geometry": {"type": "Point", "coordinates": [102.1719679248502, -25.419439041186777]}}, {"type": "Feature", "properties": {"norad_id": 66648, "name": "COSMOS 2598 (RODNIK-S 23)", "group": "last-30-days", "lat": -59.409083541883284, "lon": -94.3001816496394, "alt_km": 1500.341829260953, "timestamp": "2025-12-25T09:48:51.003876+00:00", "meta": {"OBJECT_NAME": "COSMOS 2598 (RODNIK-S 23)", "OBJECT_ID": "2025-273B", "EPOCH": "2025-12-25T02:24:44.693856", "MEAN_MOTION": 12.43233641, "ECCENTRICITY": 0.0008197, "INCLINATION": 82.5033, "RA_OF_ASC_NODE": 278.76, "ARG_OF_PERICENTER": 207.3704, "MEAN_ANOMALY": 152.6945, "EPHEMERIS_TYPE": 0, "CLASSIFICATION_TYPE": "U", "NORAD_CAT_ID": 66648, "ELEMENT_SET_NO": 999, "REV_AT_EPOCH": 367, "BSTAR": 0.00023312, "MEAN_MOTION_DOT": 4.2e-07, "MEAN_MOTION_DDOT": 0}, "tle": {"line1": "1 66648U 25273B   25359.10051729  .00000042  00000+0  23312-3 0  9997", "line2": "2 66648  82.5033 278.7600 0008197 207.3704 152.6945 12.43233641  3678"}}, "geometry": {"type": "Point", "coordinates": [-94.3001816496394, -59.409083541883284]}}, {"type": "Feature", "properties": {"norad_id": 66649, "name": "COSMOS 2599 (RODNIK-S 24)", "group": "last-30-days", "lat": 29.207023161141226, "lon": 94.39789118590134, "alt_km": 1500.441192658157, "timestamp": "2025-12-25T09:48:51.003886+00:00", "meta": {"OBJECT_NAME": "COSMOS 2599 (RODNIK-S 24)", "OBJECT_ID": "2025-273C", "EPOCH": "2025-12-25T03:12:06.230016", "MEAN_MOTION": 12.41152287, "ECCENTRICITY": 0.0006341, "INCLINATION": 82.5051, "RA_OF_ASC_NODE": 278.7886, "ARG_OF_PERICENTER": 244.9191, "MEAN_ANOMALY": 115.1229, "EPHEMERIS_TYPE": 0, "CLASSIFICATION_TYPE": "U", "NORAD_CAT_ID": 66649, "ELEMENT_SET_NO": 999, "REV_AT_EPOCH": 367, "BSTAR": 0.00027613, "MEAN_MOTION_DOT": 4.7e-07, "MEAN_MOTION_DDOT": 0}, "tle": {"line1": "1 66649U 25273C   25359.13340544  .00000047  00000+0  27613-3 0  9990", "line2": "2 66649  82.5051 278.7886 0006341 244.9191 115.1229 12.41152287  3674"}}, "geometry": {"type": "Point", "coordinates": [94.39789118590134, 29.207023161141226]}}, {"type": "Feature", "properties": {"norad_id": 66650, "name": "BEE-1000", "group": "last-30-days", "lat": -63.16481655112162, "lon": 90.7684506112286, "alt_km": 593.8331321168507, "timestamp": "2025-12-25T09:48:51.003899+00:00", "meta": {"OBJECT_NAME": "BEE-1000", "OBJECT_ID": "2025-274A", "EPOCH": "2025-12-24T18:14:01.824576", "MEAN_MOTION": 14.91700346, "ECCENTRICITY": 0.0011078, "INCLINATION": 97.7405, "RA_OF_ASC_NODE": 285.7275, "ARG_OF_PERICENTER": 207.2837, "MEAN_ANOMALY": 152.7801, "EPHEMERIS_TYPE": 0, "CLASSIFICATION_TYPE": "U", "NORAD_CAT_ID": 66650, "ELEMENT_SET_NO": 999, "REV_AT_EPOCH": 419, "BSTAR": 0.00017291328, "MEAN_MOTION_DOT": 1.685e-05, "MEAN_MOTION_DDOT": 0}, "tle": {"line1": "1 66650U 25274A   25358.75974334  .00001685  00000+0  17291-3 0  9990", "line2": "2 66650  97.7405 285.7275 0011078 207.2837 152.7801 14.91700346  4192"}}, "geometry": {"type": "Point", "coordinates": [90.7684506112286, -63.16481655112162]}}, {"type": "Feature", "properties": {"norad_id": 66651, "name": "2025-274B", "group": "last-30-days", "lat": -74.44830914881118, "lon": 77.11107093683012, "alt_km": 594.6681672166678, "timestamp": "2025-12-25T09:48:51.003910+00:00", "meta": {"OBJECT_NAME": "2025-274B", "OBJECT_ID": "2025-274B", "EPOCH": "2025-12-24T18:10:51.621888", "MEAN_MOTION": 14.91882625, "ECCENTRICITY": 0.00112751, "INCLINATION": 97.7402, "RA_OF_ASC_NODE": 285.7287, "ARG_OF_PERICENTER": 205.3112, "MEAN_ANOMALY": 154.7556, "EPHEMERIS_TYPE": 0, "CLASSIFICATION_TYPE": "U", "NORAD_CAT_ID": 66651, "ELEMENT_SET_NO": 999, "REV_AT_EPOCH": 419, "BSTAR": 0.00044642695, "MEAN_MOTION_DOT": 4.462e-05, "MEAN_MOTION_DDOT": 0}, "tle": {"line1": "1 66651U 25274B   25358.75754192  .00004462  00000+0  44643-3 0  9996", "line2": "2 66651  97.7402 285.7287 0011275 205.3112 154.7556 14.91882625  4197"}}, "geometry": {"type": "Point", "coordinates": [77.11107093683012, -74.44830914881118]}}, {"type": "Feature", "properties": {"norad_id": 66652, "name": "2025-274C", "group": "last-30-days", "lat": -82.09733611886783, "lon": 27.88089822257687, "alt_km": 595.1743447487524, "timestamp": "2025-12-25T09:48:51.003920+00:00", "meta": {"OBJECT_NAME": "2025-274C", "OBJECT_ID": "2025-274C", "EPOCH": "2025-12-24T18:07:41.820096", "MEAN_MOTION": 14.91968899, "ECCENTRICITY": 0.00108237, "INCLINATION": 97.7406, "RA_OF_ASC_NODE": 285.7332, "ARG_OF_PERICENTER": 212.2787, "MEAN_ANOMALY": 147.777, "EPHEMERIS_TYPE": 0, "CLASSIFICATION_TYPE": "U", "NORAD_CAT_ID": 66652, "ELEMENT_SET_NO": 999, "REV_AT_EPOCH": 419, "BSTAR": 0.00035721697, "MEAN_MOTION_DOT": 3.566e-05, "MEAN_MOTION_DDOT": 0}, "tle": {"line1": "1 66652U 25274C   25358.75534514  .00003566  00000+0  35722-3 0  9993", "line2": "2 66652  97.7406 285.7332 0010823 212.2787 147.7770 14.91968899  4194"}}, "geometry": {"type": "Point", "coordinates": [27.88089822257687, -82.09733611886783]}}, {"type": "Feature", "properties": {"norad_id": 66653, "name": "2025-274D", "group": "last-30-days", "lat": -82.16244747360801, "lon": 25.214057119013795, "alt_km": 595.3197478469119, "timestamp": "2025-12-25T09:48:51.003930+00:00", "meta": {"OBJECT_NAME": "2025-274D", "OBJECT_ID": "2025-274D", "EPOCH": "2025-12-24T16:31:01.122816", "MEAN_MOTION": 14.91960276, "ECCENTRICITY": 0.00117977, "INCLINATION": 97.7404, "RA_OF_ASC_NODE": 285.6669, "ARG_OF_PERICENTER": 209.062, "MEAN_ANOMALY": 150.9944, "EPHEMERIS_TYPE": 0, "CLASSIFICATION_TYPE": "U", "NORAD_CAT_ID": 66653, "ELEMENT_SET_NO": 999, "REV_AT_EPOCH": 418, "BSTAR": 0.00028250875, "MEAN_MOTION_DOT": 2.808e-05, "MEAN_MOTION_DDOT": 0}, "tle": {"line1": "1 66653U 25274D   25358.68820744  .00002808  00000+0  28251-3 0  9996", "line2": "2 66653  97.7404 285.6669 0011797 209.0620 150.9944 14.91960276  4185"}}, "geometry": {"type": "Point", "coordinates": [25.214057119013795, -82.16244747360801]}}, {"type": "Feature", "properties": {"norad_id": 66654, "name": "JACK E", "group": "last-30-days", "lat": -71.63989901667387, "lon": -49.42147628439188, "alt_km": 596.7881172512416, "timestamp": "2025-12-25T09:48:51.003940+00:00", "meta": {"OBJECT_NAME": "JACK E", "OBJECT_ID": "2025-274E", "EPOCH": "2025-12-25T02:05:43.755072", "MEAN_MOTION": 14.92147678, "ECCENTRICITY": 0.001236, "INCLINATION": 97.7407, "RA_OF_ASC_NODE": 286.0673, "ARG_OF_PERICENTER": 209.4526, "MEAN_ANOMALY": 150.5998, "EPHEMERIS_TYPE": 0, "CLASSIFICATION_TYPE": "U", "NORAD_CAT_ID": 66654, "ELEMENT_SET_NO": 999, "REV_AT_EPOCH": 424, "BSTAR": 0.0003352, "MEAN_MOTION_DOT": 3.359e-05, "MEAN_MOTION_DDOT": 0}, "tle": {"line1": "1 66654U 25274E   25359.08731198  .00003359  00000+0  33520-3 0  9993", "line2": "2 66654  97.7407 286.0673 0012360 209.4526 150.5998 14.92147678  4241"}}, "geometry": {"type": "Point", "coordinates": [-49.42147628439188, -71.63989901667387]}}, {"type": "Feature", "properties": {"norad_id": 66655, "name": "2025-274F", "group": "last-30-days", "lat": -65.82147814103982, "lon": 88.73681268852482, "alt_km": 601.5326927016667, "timestamp": "2025-12-25T09:48:51.003949+00:00", "meta": {"OBJECT_NAME": "2025-274F", "OBJECT_ID": "2025-274F", "EPOCH": "2025-12-24T18:12:56.278080", "MEAN_MOTION": 14.91197011, "ECCENTRICITY": 0.0004549, "INCLINATION": 97.7341, "RA_OF_ASC_NODE": 285.7198, "ARG_OF_PERICENTER": 340.7017, "MEAN_ANOMALY": 19.4028, "EPHEMERIS_TYPE": 0, "CLASSIFICATION_TYPE": "U", "NORAD_CAT_ID": 66655, "ELEMENT_SET_NO": 999, "REV_AT_EPOCH": 419, "BSTAR": 1.747e-05, "MEAN_MOTION_DOT": 1.19e-06, "MEAN_MOTION_DDOT": 0}, "tle": {"line1": "1 66655U 25274F   25358.75898470  .00000119  00000+0  17470-4 0  9992", "line2": "2 66655  97.7341 285.7198 0004549 340.7017  19.4028 14.91197011  4197"}}, "geometry": {"type": "Point", "coordinates": [88.73681268852482, -65.82147814103982]}}]}